     2.10           N: GPS NAV DATA                         RINEX VERSION / TYPE
teqc  2008Oct2      gpsops              20090105 00:09:50UTCPGM / RUN BY / DATE
Linux 2.4.20-8|Pentium IV|gcc -static|Linux|486/DX+         COMMENT
soc2rnx ver 1.20    gpsops               5-Jan-2009 00:09:28COMMENT
Forced Modulo Decimation to 30 seconds                      COMMENT
GLPS                                    MARKER NAME         COMMENT
42005M002                               MARKER NUMBER       COMMENT
-33801.4662 -6377516.5323 -82154.3508                       COMMENT
                                                            COMMENT
This data is provided as a public service by NASA/JPL.      COMMENT
No warranty is expressed or implied regarding suitability   COMMENT
for use.  For further information, contact:                 COMMENT
Dave Stowers, NASA/JPL m/s 238-600                          COMMENT
4800 Oak Grove Drive, Pasadena CA 91109 USA                 COMMENT
                                                            END OF HEADER
 5 09  1  4  1 59 44.0-4.867487587035D-04-6.559730536537D-11 0.000000000000D+00
    1.900000000000D+01-4.296875000000D+01 5.163429363273D-09-1.335467899873D+00
   -2.121552824974D-06 9.361916803755D-03 5.971640348434D-06 5.153639120102D+03
    7.184000000000D+03 4.097819328308D-08-7.640934504164D-02 2.197921276093D-07
    9.450250138222D-01 2.549375000000D+02 1.296009794021D+00-8.450709148814D-09
   -5.000208278745D-11 1.000000000000D+00 1.513000000000D+03 0.000000000000D+00
    2.000000000000D+00 0.000000000000D+00-4.190951585770D-09 1.900000000000D+01
    0.000000000000D+00
 9 09  1  4  1 59 44.0 3.314763307571D-05 1.932676241267D-12 0.000000000000D+00
    2.400000000000D+01 6.562500000000D+00 4.389111395536D-09-2.304755648495D-01
    4.004687070847D-07 2.013023989275D-02 7.390975952148D-06 5.153654577255D+03
    7.184000000000D+03-2.663582563400D-07-1.063948820962D+00 2.086162567139D-07
    9.743532648559D-01 2.474375000000D+02 1.455494494159D+00-8.398921277355D-09
    3.203704875739D-10 1.000000000000D+00 1.513000000000D+03 0.000000000000D+00
    2.000000000000D+00 0.000000000000D+00-5.587935447693D-09 2.400000000000D+01
    0.000000000000D+00
12 09  1  4  2  0  0.0-3.285491839051D-04 3.183231456205D-12 0.000000000000D+00
    7.100000000000D+01-5.068750000000D+01 4.649479383765D-09 9.243096607960D-01
   -2.752989530563D-06 3.093440318480D-03 6.409361958504D-06 5.153744268417D+03
    7.200000000000D+03 4.284083843231D-08 2.201931481570D-02-6.519258022308D-08
    9.660156148850D-01 2.583437500000D+02-8.320759674639D-01-8.158196964507D-09
   -8.000333245992D-11 1.000000000000D+00 1.513000000000D+03 0.000000000000D+00
    2.000000000000D+00 0.000000000000D+00-1.164153218269D-08 7.100000000000D+01
    0.000000000000D+00
14 09  1  4  2  0  0.0-1.730341464281D-04 5.115907697473D-12 0.000000000000D+00
    9.900000000000D+01-2.996875000000D+01 3.734798426488D-09 2.778772803224D+00
   -1.521781086922D-06 4.467363003641D-03 9.100884199142D-06 5.153563674927D+03
    7.200000000000D+03 2.607703208923D-08-2.041794426762D+00-6.519258022308D-08
    9.888282906559D-01 2.158750000000D+02-2.102789368269D+00-7.680319916153D-09
   -1.389343586023D-10 1.000000000000D+00 1.513000000000D+03 0.000000000000D+00
    2.800000000000D+00 0.000000000000D+00-9.313225746155D-09 9.900000000000D+01
    0.000000000000D+00
18 09  1  4  2  0  0.0-9.652599692345D-05 3.751665644813D-12 0.000000000000D+00
    8.600000000000D+01 1.500000000000D+00 5.080211611205D-09-1.483841678682D+00
    1.341104507446D-07 9.889455279335D-03 4.734843969345D-06 5.153747148514D+03
    7.200000000000D+03 1.508742570877D-07-3.091272439517D+00-4.656612873077D-08
    9.447871828413D-01 2.778750000000D+02-2.437886861053D+00-8.431065473433D-09
   -1.385772008681D-10 1.000000000000D+00 1.513000000000D+03 0.000000000000D+00
    2.000000000000D+00 0.000000000000D+00-1.071020960808D-08 8.600000000000D+01
    0.000000000000D+00
21 09  1  4  2  0  0.0 3.546429798007D-05-1.705302565824D-12 0.000000000000D+00
    5.800000000000D+01 7.543750000000D+01 5.317721504445D-09-2.256451600323D-01
    4.030764102936D-06 1.451505697332D-02 7.072463631630D-06 5.153655679703D+03
    7.200000000000D+03 1.601874828339D-07 2.133667774113D+00 1.769512891769D-07
    9.346097027256D-01 2.294687500000D+02-2.657216480852D+00-8.722506184537D-09
    1.560779298437D-10 1.000000000000D+00 1.513000000000D+03 0.000000000000D+00
    2.000000000000D+00 0.000000000000D+00-1.164153218269D-08 5.800000000000D+01
    0.000000000000D+00
22 09  1  4  2  0  0.0 2.071904018521D-04-4.547473508865D-13 0.000000000000D+00
    1.890000000000D+02 5.062500000000D+00 5.145214318829D-09-2.639653527570D+00
    2.551823854446D-07 4.978071316145D-03 4.738569259644D-06 5.153667518616D+03
    7.200000000000D+03 5.215406417847D-08-3.085272086446D+00 3.725290298462D-08
    9.424441147288D-01 2.775625000000D+02-1.812187459282D+00-8.455352199358D-09
   -1.739358165535D-10 1.000000000000D+00 1.513000000000D+03 0.000000000000D+00
    4.000000000000D+00 0.000000000000D+00-1.816079020500D-08 1.890000000000D+02
    0.000000000000D+00
24 09  1  4  2  0  0.0 1.547820866108D-04 3.183231456205D-12 0.000000000000D+00
    1.060000000000D+02 7.303125000000D+01 4.883774857397D-09-1.598984459938D+00
    3.745779395103D-06 7.077881367877D-03 7.469207048416D-06 5.153667455673D+03
    7.200000000000D+03-1.098960638046D-07 2.163363355099D+00-2.793967723846D-08
    9.512743511608D-01 2.329687500000D+02-6.471368511617D-01-8.318203629427D-09
    1.971510692762D-10 1.000000000000D+00 1.513000000000D+03 0.000000000000D+00
    2.800000000000D+00 0.000000000000D+00-1.396983861923D-09 1.060000000000D+02
    0.000000000000D+00
29 09  1  4  2  0  0.0-2.062553539872D-05 2.614797267597D-12 0.000000000000D+00
    5.400000000000D+01-4.468750000000D+00 4.500901766339D-09-1.545681982030D-01
   -1.862645149231D-07 3.212613286451D-03 1.054443418980D-05 5.153766698837D+03
    7.200000000000D+03-3.725290298462D-08 1.088481509498D+00-1.117587089539D-08
    9.595886397928D-01 1.767187500000D+02-1.342955335503D+00-7.988189883030D-09
   -9.643258823294D-11 1.000000000000D+00 1.513000000000D+03 0.000000000000D+00
    2.000000000000D+00 0.000000000000D+00-8.847564458847D-09 5.400000000000D+01
    0.000000000000D+00
30 09  1  4  2  0  0.0 1.176325604320D-04 2.387423592154D-12 0.000000000000D+00
    1.040000000000D+02-4.481250000000D+01 4.921990734956D-09-1.867219549623D+00
   -2.212822437286D-06 1.115124986973D-02 6.159767508507D-06 5.153653367996D+03
    7.200000000000D+03 1.937150955200D-07-2.339348643261D-02 1.117587089539D-07
    9.509736132395D-01 2.531875000000D+02 1.415420057995D+00-8.186412425508D-09
   -4.678766317969D-11 1.000000000000D+00 1.513000000000D+03 0.000000000000D+00
    4.000000000000D+00 0.000000000000D+00-7.916241884232D-09 1.040000000000D+02
    0.000000000000D+00
31 09  1  4  2  0  0.0-4.629371687770D-05-1.591615728103D-12 0.000000000000D+00
    8.900000000000D+01 3.125000000000D-01 4.358395830395D-09 6.354906963840D-01
   -6.332993507385D-08 7.085255230777D-03 7.737427949905D-06 5.153611997604D+03
    7.200000000000D+03-2.235174179077D-08-1.031684646949D+00-7.636845111847D-08
    9.708216182286D-01 2.375937500000D+02-1.214906900149D+00-8.161054226381D-09
    2.746542975968D-10 1.000000000000D+00 1.513000000000D+03 0.000000000000D+00
    2.800000000000D+00 0.000000000000D+00-1.303851604462D-08 8.900000000000D+01
    1.200000000000D+03
 6 09  1  4  1 59 44.0 1.032557338476D-04-1.136868377216D-11 0.000000000000D+00
    2.000000000000D+01-1.553125000000D+01 5.111998649549D-09-1.566633110637D+00
   -6.109476089478D-07 5.613322602585D-03 1.062639057636D-05 5.153712783813D+03
    7.184000000000D+03 9.313225746155D-09 1.020990228638D+00 1.192092895508D-07
    9.334349048991D-01 1.597812500000D+02-1.490779465269D+00-8.284273644678D-09
   -1.225051028293D-10 1.000000000000D+00 1.513000000000D+03 0.000000000000D+00
    2.000000000000D+00 0.000000000000D+00-4.656612873077D-09 2.000000000000D+01
    1.680000000000D+03
22 09  1  4  1 59 44.0 2.071871422231D-04-5.684341886081D-13 0.000000000000D+00
    1.000000000000D+01 5.062500000000D+00 5.145214318829D-09-2.641985869568D+00
    2.551823854446D-07 4.978070617653D-03 4.738569259644D-06 5.153667512894D+03
    7.184000000000D+03 5.215406417847D-08-3.085271944543D+00 3.725290298462D-08
    9.424441103401D-01 2.775625000000D+02-1.812188813944D+00-8.455352199358D-09
   -1.739358165535D-10 1.000000000000D+00 1.513000000000D+03 0.000000000000D+00
    2.000000000000D+00 0.000000000000D+00-1.816079020500D-08 1.000000000000D+01
    4.200000000000D+03
30 09  1  4  1 59 44.0 1.176260411739D-04 2.273736754432D-12 0.000000000000D+00
    3.600000000000D+01-4.481250000000D+01 4.921990734956D-09-1.869553480350D+00
   -2.212822437286D-06 1.115124672651D-02 6.159767508507D-06 5.153653371811D+03
    7.184000000000D+03 1.937150955200D-07-2.339333721497D-02 1.117587089539D-07
    9.509736029991D-01 2.531875000000D+02 1.415420246712D+00-8.186412425508D-09
   -4.678766317969D-11 1.000000000000D+00 1.513000000000D+03 0.000000000000D+00
    2.000000000000D+00 0.000000000000D+00-7.916241884232D-09 3.600000000000D+01
    6.450000000000D+03
 5 09  1  4  4  0  0.0-4.872218705714D-04-6.548361852765D-11 0.000000000000D+00
    2.000000000000D+01-3.865625000000D+01 5.192001982008D-09-2.828632405836D-01
   -2.022832632065D-06 9.362432290800D-03 5.895271897316D-06 5.153640630722D+03
    1.440000000000D+04-6.332993507385D-08-7.647141811866D-02 8.195638656616D-08
    9.450241741072D-01 2.586250000000D+02 1.295945485606D+00-8.610358655999D-09
   -3.928735076157D-12 1.000000000000D+00 1.513000000000D+03 0.000000000000D+00
    2.000000000000D+00 0.000000000000D+00-4.190951585770D-09 2.000000000000D+01
    7.200000000000D+03
